ONEWEB-0228             
1 48780U 21045P   24200.50105329 -.00000105  00000+0 -31592-3 0  9992
2 48780  87.9014  38.2150 0001806  82.7372 277.3963 13.15070636153593
